start=new Date('2022-04-19T00:00:00.000Z').valueOf();
sats=[{"ELEMENT_SET_NO":"999","COUNTRY_CODE":"US","ARG_OF_PERICENTER":"55.7775","REV_AT_EPOCH":"9014","MEAN_MOTION_DDOT":"0.0000000000000","MEAN_MOTION":"15.06408333","CENTER_NAME":"EARTH","EPOCH":"2022-04-18T19:15:00.649440","DECAY_DATE":null,"MEAN_MOTION_DOT":"0.00013313","TLE_LINE1":"1 46338U 20062P   22108.80209085  .00013313  00000-0  91072-3 0  9992","OBJECT_TYPE":"PAYLOAD","EPHEMERIS_TYPE":"0","LAUNCH_DATE":"2020-09-03","CLASSIFICATION_TYPE":"U","TIME_SYSTEM":"UTC","SEMIMAJOR_AXIS":"6925.323","OBJECT_NAME":"STARLINK-1752","GP_ID":"201577229","ECCENTRICITY":"0.00014730","RA_OF_ASC_NODE":"275.2285","SITE":"AFETR","NORAD_CAT_ID":"46338","MEAN_ELEMENT_THEORY":"SGP4","PERIOD":"95.592","OBJECT_ID":"2020-062P","PERIAPSIS":"546.168","REF_FRAME":"TEME","TLE_LINE2":"2 46338  53.0549 275.2285 0001473  55.7775 304.3354 15.06408333 90143","RCS_SIZE":"LARGE","FILE":"3407402","MEAN_ANOMALY":"304.3354","INCLINATION":"53.0549","APOAPSIS":"548.208","BSTAR":"0.00091072000000"},{"REF_FRAME":"TEME","PERIAPSIS":"546.113","TLE_LINE2":"2 46340  53.0559 275.0487 0001546  61.2321 298.8823 15.06409699 90154","RCS_SIZE":"LARGE","MEAN_ELEMENT_THEORY":"SGP4","OBJECT_ID":"2020-062R","PERIOD":"95.592","INCLINATION":"53.0559","BSTAR":"0.00029942000000","APOAPSIS":"548.254","FILE":"3407402","MEAN_ANOMALY":"298.8823","EPOCH":"2022-04-18T20:12:00.652608","CENTER_NAME":"EARTH","DECAY_DATE":null,"MEAN_MOTION_DOT":"0.00004182","OBJECT_TYPE":"PAYLOAD","TLE_LINE1":"1 46340U 20062R   22108.84167422  .00004182  00000-0  29942-3 0  9998","COUNTRY_CODE":"US","ELEMENT_SET_NO":"999","REV_AT_EPOCH":"9015","ARG_OF_PERICENTER":"61.2321","MEAN_MOTION":"15.06409699","MEAN_MOTION_DDOT":"0.0000000000000","ECCENTRICITY":"0.00015460","RA_OF_ASC_NODE":"275.0487","NORAD_CAT_ID":"46340","SITE":"AFETR","LAUNCH_DATE":"2020-09-03","EPHEMERIS_TYPE":"0","SEMIMAJOR_AXIS":"6925.319","CLASSIFICATION_TYPE":"U","TIME_SYSTEM":"UTC","GP_ID":"201578481","OBJECT_NAME":"STARLINK-1759"},{"COUNTRY_CODE":"US","ELEMENT_SET_NO":"999","REV_AT_EPOCH":"9043","ARG_OF_PERICENTER":"55.1312","MEAN_MOTION":"15.06417283","MEAN_MOTION_DDOT":"0.0000000000000","EPOCH":"2022-04-18T18:45:48.129120","CENTER_NAME":"EARTH","DECAY_DATE":null,"MEAN_MOTION_DOT":"0.00016262","OBJECT_TYPE":"PAYLOAD","TLE_LINE1":"1 46341U 20062S   22108.78180705  .00016262  00000-0  11076-2 0  9991","LAUNCH_DATE":"2020-09-03","EPHEMERIS_TYPE":"0","SEMIMAJOR_AXIS":"6925.296","TIME_SYSTEM":"UTC","CLASSIFICATION_TYPE":"U","GP_ID":"201578732","OBJECT_NAME":"STARLINK-1760","ECCENTRICITY":"0.00016370","RA_OF_ASC_NODE":"255.3190","NORAD_CAT_ID":"46341","SITE":"AFETR","MEAN_ELEMENT_THEORY":"SGP4","OBJECT_ID":"2020-062S","PERIOD":"95.591","REF_FRAME":"TEME","PERIAPSIS":"546.027","TLE_LINE2":"2 46341  53.0547 255.3190 0001637  55.1312 304.9831 15.06417283 90434","RCS_SIZE":"LARGE","FILE":"3407402","MEAN_ANOMALY":"304.9831","INCLINATION":"53.0547","BSTAR":"0.00110760000000","APOAPSIS":"548.294"},{"DECAY_DATE":null,"CENTER_NAME":"EARTH","EPOCH":"2022-04-18T19:52:09.487776","OBJECT_TYPE":"PAYLOAD","TLE_LINE1":"1 46342U 20062T   22108.82788759  .00013435  00000-0  91875-3 0  9995","MEAN_MOTION_DOT":"0.00013435","REV_AT_EPOCH":"9015","ARG_OF_PERICENTER":"58.2866","COUNTRY_CODE":"US","ELEMENT_SET_NO":"999","MEAN_MOTION":"15.06414338","MEAN_MOTION_DDOT":"0.0000000000000","ECCENTRICITY":"0.00015170","NORAD_CAT_ID":"46342","SITE":"AFETR","RA_OF_ASC_NODE":"275.1003","LAUNCH_DATE":"2020-09-03","EPHEMERIS_TYPE":"0","GP_ID":"201577480","OBJECT_NAME":"STARLINK-1762","SEMIMAJOR_AXIS":"6925.305","CLASSIFICATION_TYPE":"U","TIME_SYSTEM":"UTC","REF_FRAME":"TEME","PERIAPSIS":"546.119","RCS_SIZE":"LARGE","TLE_LINE2":"2 46342  53.0534 275.1003 0001517  58.2866 301.8271 15.06414338 90150","MEAN_ELEMENT_THEORY":"SGP4","OBJECT_ID":"2020-062T","PERIOD":"95.591","BSTAR":"0.00091875000000","APOAPSIS":"548.220","INCLINATION":"53.0534","FILE":"3407402","MEAN_ANOMALY":"301.8271"},{"ECCENTRICITY":"0.00016380","RA_OF_ASC_NODE":"255.1506","NORAD_CAT_ID":"46343","SITE":"AFETR","LAUNCH_DATE":"2020-09-03","EPHEMERIS_TYPE":"0","SEMIMAJOR_AXIS":"6925.324","TIME_SYSTEM":"UTC","CLASSIFICATION_TYPE":"U","GP_ID":"201577730","OBJECT_NAME":"STARLINK-1764","CENTER_NAME":"EARTH","EPOCH":"2022-04-18T19:44:10.146624","DECAY_DATE":null,"MEAN_MOTION_DOT":"0.00004139","OBJECT_TYPE":"PAYLOAD","TLE_LINE1":"1 46343U 20062U   22108.82233966  .00004139  00000-0  29652-3 0  9996","COUNTRY_CODE":"US","ELEMENT_SET_NO":"999","REV_AT_EPOCH":"9043","ARG_OF_PERICENTER":"60.2083","MEAN_MOTION":"15.06407979","MEAN_MOTION_DDOT":"0.0000000000000","INCLINATION":"53.0556","BSTAR":"0.00029652000000","APOAPSIS":"548.323","FILE":"3407402","MEAN_ANOMALY":"299.9069","REF_FRAME":"TEME","PERIAPSIS":"546.055","TLE_LINE2":"2 46343  53.0556 255.1506 0001638  60.2083 299.9069 15.06407979 90435","RCS_SIZE":"LARGE","MEAN_ELEMENT_THEORY":"SGP4","OBJECT_ID":"2020-062U","PERIOD":"95.592"},{"SITE":"AFETR","NORAD_CAT_ID":"46344","RA_OF_ASC_NODE":"255.0572","ECCENTRICITY":"0.00017880","OBJECT_NAME":"STARLINK-1765","GP_ID":"201577981","TIME_SYSTEM":"UTC","CLASSIFICATION_TYPE":"U","SEMIMAJOR_AXIS":"6925.296","EPHEMERIS_TYPE":"0","LAUNCH_DATE":"2020-09-03","TLE_LINE1":"1 46344U 20062V   22108.84078633  .00015032  00000-0  10254-2 0  9998","OBJECT_TYPE":"PAYLOAD","MEAN_MOTION_DOT":"0.00015032","DECAY_DATE":null,"CENTER_NAME":"EARTH","EPOCH":"2022-04-18T20:10:43.938912","MEAN_MOTION_DDOT":"0.0000000000000","MEAN_MOTION":"15.06417099","ARG_OF_PERICENTER":"49.3473","REV_AT_EPOCH":"9043","ELEMENT_SET_NO":"999","COUNTRY_CODE":"US","APOAPSIS":"548.399","BSTAR":"0.00102540000000","INCLINATION":"53.0561","MEAN_ANOMALY":"310.7671","FILE":"3407402","RCS_SIZE":"LARGE","TLE_LINE2":"2 46344  53.0561 255.0572 0001788  49.3473 310.7671 15.06417099 90436","PERIAPSIS":"545.923","REF_FRAME":"TEME","PERIOD":"95.591","OBJECT_ID":"2020-062V","MEAN_ELEMENT_THEORY":"SGP4"},{"GP_ID":"201578232","OBJECT_NAME":"STARLINK-1767","SEMIMAJOR_AXIS":"6925.331","TIME_SYSTEM":"UTC","CLASSIFICATION_TYPE":"U","LAUNCH_DATE":"2020-09-03","EPHEMERIS_TYPE":"0","NORAD_CAT_ID":"46345","SITE":"AFETR","RA_OF_ASC_NODE":"275.0365","ECCENTRICITY":"0.00014320","MEAN_MOTION":"15.06405591","MEAN_MOTION_DDOT":"0.0000000000000","REV_AT_EPOCH":"9015","ARG_OF_PERICENTER":"55.9544","COUNTRY_CODE":"US","ELEMENT_SET_NO":"999","OBJECT_TYPE":"PAYLOAD","TLE_LINE1":"1 46345U 20062W   22108.84263412  .00013424  00000-0  91822-3 0  9994","MEAN_MOTION_DOT":"0.00013424","DECAY_DATE":null,"EPOCH":"2022-04-18T20:13:23.587968","CENTER_NAME":"EARTH","MEAN_ANOMALY":"304.1581","FILE":"3407402","BSTAR":"0.00091822000000","APOAPSIS":"548.188","INCLINATION":"53.0538","OBJECT_ID":"2020-062W","PERIOD":"95.592","MEAN_ELEMENT_THEORY":"SGP4","RCS_SIZE":"LARGE","TLE_LINE2":"2 46345  53.0538 275.0365 0001432  55.9544 304.1581 15.06405591 90151","REF_FRAME":"TEME","PERIAPSIS":"546.205"},{"TLE_LINE2":"2 46346  53.0521 132.2518 0004005   8.2663 351.8404 15.34286502 92133","RCS_SIZE":"LARGE","PERIAPSIS":"460.303","REF_FRAME":"TEME","PERIOD":"93.855","OBJECT_ID":"2020-062X","MEAN_ELEMENT_THEORY":"SGP4","INCLINATION":"53.0521","APOAPSIS":"465.782","BSTAR":"0.00073359000000","MEAN_ANOMALY":"351.8404","FILE":"3406909","MEAN_MOTION_DOT":"0.00024406","TLE_LINE1":"1 46346U 20062X   22108.41546965  .00024406  00000-0  73359-3 0  9992","OBJECT_TYPE":"PAYLOAD","EPOCH":"2022-04-18T09:58:16.577760","CENTER_NAME":"EARTH","DECAY_DATE":null,"MEAN_MOTION_DDOT":"0.0000000000000","MEAN_MOTION":"15.34286502","ELEMENT_SET_NO":"999","COUNTRY_CODE":"US","ARG_OF_PERICENTER":"8.2663","REV_AT_EPOCH":"9213","RA_OF_ASC_NODE":"132.2518","SITE":"AFETR","NORAD_CAT_ID":"46346","ECCENTRICITY":"0.00040050","CLASSIFICATION_TYPE":"U","TIME_SYSTEM":"UTC","SEMIMAJOR_AXIS":"6841.178","OBJECT_NAME":"STARLINK-1546","GP_ID":"201543527","EPHEMERIS_TYPE":"0","LAUNCH_DATE":"2020-09-03"},{"INCLINATION":"53.0548","BSTAR":"0.00032157000000","APOAPSIS":"548.504","MEAN_ANOMALY":"310.2443","FILE":"3407402","TLE_LINE2":"2 46347  53.0548 230.2257 0001883  49.8711 310.2443 15.06404361 90761","RCS_SIZE":"LARGE","REF_FRAME":"TEME","PERIAPSIS":"545.896","OBJECT_ID":"2020-062Y","PERIOD":"95.592","MEAN_ELEMENT_THEORY":"SGP4","RA_OF_ASC_NODE":"230.2257","NORAD_CAT_ID":"46347","SITE":"AFETR","ECCENTRICITY":"0.00018830","SEMIMAJOR_AXIS":"6925.335","CLASSIFICATION_TYPE":"U","TIME_SYSTEM":"UTC","GP_ID":"201577230","OBJECT_NAME":"STARLINK-1547","LAUNCH_DATE":"2020-09-03","EPHEMERIS_TYPE":"0","MEAN_MOTION_DOT":"0.00004512","OBJECT_TYPE":"PAYLOAD","TLE_LINE1":"1 46347U 20062Y   22108.80069754  .00004512  00000-0  32157-3 0  9999","CENTER_NAME":"EARTH","EPOCH":"2022-04-18T19:13:00.267456","DECAY_DATE":null,"MEAN_MOTION":"15.06404361","MEAN_MOTION_DDOT":"0.0000000000000","COUNTRY_CODE":"US","ELEMENT_SET_NO":"999","REV_AT_EPOCH":"9076","ARG_OF_PERICENTER":"49.8711"},{"OBJECT_TYPE":"PAYLOAD","TLE_LINE1":"1 46348U 20062Z   22108.71177527  .00016771  00000-0  11416-2 0  9992","MEAN_MOTION_DOT":"0.00016771","DECAY_DATE":null,"EPOCH":"2022-04-18T17:04:57.383328","CENTER_NAME":"EARTH","MEAN_MOTION":"15.06417400","MEAN_MOTION_DDOT":"0.0000000000000","REV_AT_EPOCH":"9041","ARG_OF_PERICENTER":"64.1338","COUNTRY_CODE":"US","ELEMENT_SET_NO":"999","NORAD_CAT_ID":"46348","SITE":"AFETR","RA_OF_ASC_NODE":"255.6228","ECCENTRICITY":"0.00012850","GP_ID":"201578482","OBJECT_NAME":"STARLINK-1553","SEMIMAJOR_AXIS":"6925.295","TIME_SYSTEM":"UTC","CLASSIFICATION_TYPE":"U","LAUNCH_DATE":"2020-09-03","EPHEMERIS_TYPE":"0","RCS_SIZE":"LARGE","TLE_LINE2":"2 46348  53.0541 255.6228 0001285  64.1338 295.9783 15.06417400 90411","REF_FRAME":"TEME","PERIAPSIS":"546.270","OBJECT_ID":"2020-062Z","PERIOD":"95.591","MEAN_ELEMENT_THEORY":"SGP4","BSTAR":"0.00114160000000","APOAPSIS":"548.050","INCLINATION":"53.0541","MEAN_ANOMALY":"295.9783","FILE":"3407402"}];
